OBJECT_NAME,OBJECT_ID,EPOCH,MEAN_MOTION,ECCENTRICITY,INCLINATION,RA_OF_ASC_NODE,ARG_OF_PERICENTER,MEAN_ANOMALY,EPHEMERIS_TYPE,CLASSIFICATION_TYPE,NORAD_CAT_ID,ELEMENT_SET_NO,REV_AT_EPOCH,BSTAR,MEAN_MOTION_DOT,MEAN_MOTION_DDOT
DUCHIFAT-1,2014-033M,2026-07-04T17:12:29.626848,15.68680703,.00005512,98.0425,247.3916,273.4953,86.6243,0,U,40021,999,65849,.18350934E-2,.213562E-2,0
NANOSATC-BR1,2014-033Q,2026-07-05T00:57:07.500096,15.32077751,.00052399,98.0709,220.0161,120.9121,239.2635,0,U,40024,999,65671,.10282685E-2,.31872E-3,0
QB50P1,2014-033R,2026-07-04T17:53:36.901536,15.18544565,.00096362,98.0964,198.1255,155.8537,204.3149,0,U,40025,999,65569,.66808568E-3,.13753E-3,0
DTUSAT-2,2014-033W,2026-07-04T22:29:42.673344,15.15257817,.00084619,98.0874,184.7942,162.8514,197.3004,0,U,40030,999,65537,.64035776E-3,.1199E-3,0
QB50P2,2014-033Y,2026-07-04T22:19:02.208288,15.15408742,.00092502,98.0760,183.9176,112.0919,248.1295,0,U,40032,999,65535,.66463648E-3,.12504E-3,0
PERSEUS-M1,2014-033AF,2026-07-05T02:23:18.839904,14.95692315,.00103093,97.9646,130.5264,234.1657,125.8606,0,U,40039,999,65331,.17089698E-3,.1842E-4,0
POLYITAN-1,2014-033AJ,2026-07-05T01:27:55.081152,15.33942082,.0008541,98.0935,214.0203,92.3372,267.8847,0,U,40042,999,65633,.9971289E-3,.32793E-3,0
TIGRISAT,2014-033AK,2026-07-04T08:43:01.388064,14.85224756,.00495846,97.7854,334.9834,19.9094,340.4041,0,U,40043,999,64817,.24133892E-3,.206E-4,0
CANX-4,2014-034C,2026-07-05T02:53:00.616128,14.81299944,.00118712,98.3098,62.0898,318.3927,41.6381,0,U,40055,999,64718,.17945557E-3,.1344E-4,0
CANX-5,2014-034D,2026-07-04T09:00:29.398464,14.81314200,.00119023,98.3101,61.3623,321.2001,38.8355,0,U,40056,999,63788,.15410853E-3,.1146E-4,0
GONETS-M 10,2014-036C,2026-07-05T08:13:07.110624,12.42946528,.00230032,82.5128,296.3981,102.8004,257.5648,0,U,40063,999,54450,.11484506E-2,.169E-5,0
METEOR-M 2,2014-037A,2026-07-05T05:39:33.772320,14.21467326,.00057883,98.5127,161.3360,357.3175,2.7971,0,U,40069,999,62188,.12342473E-3,.228E-5,0
DX1,2014-037C,2026-07-05T06:59:57.722784,14.90043289,.00063954,98.3878,149.0936,204.6100,155.4812,0,U,40071,999,64880,.33095579E-3,.3133E-4,0
UKUBE-1,2014-037F,2026-07-04T22:48:40.755744,15.13840631,.00032765,98.4244,191.0920,104.6577,255.5016,0,U,40074,999,65124,.8055371E-3,.14502E-3,0
GAOFEN-2,2014-049A,2026-07-05T06:49:29.934336,14.80921432,.000751,98.0097,250.4740,163.6086,196.5370,0,U,40118,999,64191,.17478749E-3,.1298E-4,0
BRITE-PL2 (HEWELIUSZ),2014-049B,2026-07-05T05:57:26.490528,14.94663268,.00149627,97.9113,298.3892,53.5962,306.6636,0,U,40119,999,64414,.24959488E-3,.2652E-4,0
CBERS 4,2014-079A,2026-07-05T07:10:41.462400,14.35514186,.00012052,98.3517,242.5621,51.9750,308.1545,0,U,40336,999,60655,.44109704E-4,.85E-6,0
SMAP,2015-003A,2026-07-05T04:47:19.525056,14.63383694,.00015131,98.1278,193.0390,98.5585,261.5789,0,U,40376,999,61025,.1242867E-3,.595E-5,0
GONETS-M 11,2015-020A,2026-07-05T06:45:04.923072,12.42878192,.00157398,82.4859,19.7142,326.1610,33.8464,0,U,40552,999,51098,.20749573E-3,.39E-6,0
GONETS-M 12,2015-020B,2026-07-05T06:06:37.615392,12.42891515,.00144975,82.4891,20.8595,310.5149,49.4667,0,U,40553,999,51097,-.66574778E-3,-.82E-6,0
GONETS-M 13,2015-020C,2026-07-05T07:24:47.517984,12.42871289,.00129125,82.4854,19.4354,294.7043,65.2692,0,U,40554,999,51095,-.67061948E-3,-.83E-6,0
DMC3-FM1,2015-032A,2026-07-05T06:06:30.762144,14.85761032,.0005802,97.6434,50.7187,10.6765,349.4573,0,U,40715,999,59259,.14081075E-3,.1172E-4,0
DMC3-FM2,2015-032B,2026-07-05T06:38:09.731328,14.85766120,.00065588,97.6488,52.3260,14.0575,346.0822,0,U,40716,999,59259,.73032481E-4,.583E-5,0
DMC3-FM3,2015-032C,2026-07-05T07:11:56.434272,14.85752612,.00056962,97.6539,54.1128,15.2812,344.8575,0,U,40717,999,59260,.29479117E-4,.205E-5,0
CARBONITE 1 (CBNT-1),2015-032D,2026-07-05T07:48:06.651072,14.83647852,.00131296,97.6521,3.6321,231.2252,128.7791,0,U,40718,999,59203,.35606942E-3,.2892E-4,0
LILACSAT-2,2015-049K,2026-07-05T06:20:03.155424,15.52087952,.00075236,97.4623,223.7972,172.1339,188.0033,0,U,40908,999,59855,.40290399E-3,.24281E-3,0
